{"type": "FeatureCollection", "features": [ {"type": "Feature", "properties": {"norad_id": 57401, "name": "TIANMU-1 09", "group": "weather", "lat": 61.87524185737091, "lon": -115.45278296642877, "alt_km": 473.8515325969629, "timestamp": "2025-12-27T21:25:02.142937+00:00", "meta": {"OBJECT_NAME": "TIANMU-1 09", "OBJECT_ID": "2023-101C", "EPOCH": "2025-12-27T11:28:42.598848", "MEAN_MOTION": 15.28302741, "ECCENTRICITY": 0.000603, "INCLINATION": 97.2804, "RA_OF_ASC_NODE": 50.3041, "ARG_OF_PERICENTER": 43.0152, "MEAN_ANOMALY": 317.1559, "EPHEMERIS_TYPE": 0, "CLASSIFICATION_TYPE": "U", "NORAD_CAT_ID": 57401, "ELEMENT_SET_NO": 999, "REV_AT_EPOCH": 13540, "BSTAR": 0.00030495, "MEAN_MOTION_DOT": 8.34e-05, "MEAN_MOTION_DDOT": 0}, "tle": {"line1": "1 57401U 23101C   25361.47827082  .00008340  00000+0  30495-3 0  9997", "line2": "2 57401  97.2804  50.3041 0006030  43.0152 317.1559 15.28302741135403"}}, "geometry": {"type": "Point", "coordinates": [-115.45278296642877, 61.87524185737091]}}, {"type": "Feature", "properties": {"norad_id": 57402, "name": "TIANMU-1 10", "group": "weather", "lat": -70.18765745076345, "lon": 72.38387300270662, "alt_km": 490.01867456928267, "timestamp": "2025-12-27T21:25:02.142949+00:00", "meta": {"OBJECT_NAME": "TIANMU-1 10", "OBJECT_ID": "2023-101D", "EPOCH": "2025-12-27T12:18:05.012064", "MEAN_MOTION": 15.28295597, "ECCENTRICITY": 0.0007744, "INCLINATION": 97.2884, "RA_OF_ASC_NODE": 51.203, "ARG_OF_PERICENTER": 39.9578, "MEAN_ANOMALY": 320.223, "EPHEMERIS_TYPE": 0, "CLASSIFICATION_TYPE": "U", "NORAD_CAT_ID": 57402, "ELEMENT_SET_NO": 999, "REV_AT_EPOCH": 13540, "BSTAR": 0.00030793, "MEAN_MOTION_DOT": 8.423e-05, "MEAN_MOTION_DDOT": 0}, "tle": {"line1": "1 57402U 23101D   25361.51255801  .00008423  00000+0  30793-3 0  9990", "line2": "2 57402  97.2884  51.2030 0007744  39.9578 320.2230 15.28295597135400"}}, "geometry": {"type": "Point", "coordinates": [72.38387300270662, -70.18765745076345]}}, {"type": "Feature", "properties": {"norad_id": 57490, "name": "FENGYUN 3F", "group": "weather", "lat": 50.366068232469075, "lon": 59.27849729201926, "alt_km": 820.7788605991645, "timestamp": "2025-12-27T21:25:02.142960+00:00", "meta": {"OBJECT_NAME": "FENGYUN 3F", "OBJECT_ID": "2023-111A", "EPOCH": "2025-12-27T11:01:47.146944", "MEAN_MOTION": 14.19897462, "ECCENTRICITY": 8.72e-05, "INCLINATION": 98.7064, "RA_OF_ASC_NODE": 69.5142, "ARG_OF_PERICENTER": 117.7207, "MEAN_ANOMALY": 242.4058, "EPHEMERIS_TYPE": 0, "CLASSIFICATION_TYPE": "U", "NORAD_CAT_ID": 57490, "ELEMENT_SET_NO": 999, "REV_AT_EPOCH": 12449, "BSTAR": 6.0853e-05, "MEAN_MOTION_DOT": 8.6e-07, "MEAN_MOTION_DDOT": 0}, "tle": {"line1": "1 57490U 23111A   25361.45957346  .00000086  00000+0  60853-4 0  9992", "line2": "2 57490  98.7064  69.5142 0000872 117.7207 242.4058 14.19897462124496"}}, "geometry": {"type": "Point", "coordinates": [59.27849729201926, 50.366068232469075]}}, {"type": "Feature", "properties": {"norad_id": 58584, "name": "ARKTIKA-M 2", "group": "weather", "lat": 53.73743331647515, "lon": -143.25927503005798, "alt_km": 31547.53285223986, "timestamp": "2025-12-27T21:25:02.142973+00:00", "meta": {"OBJECT_NAME": "ARKTIKA-M 2", "OBJECT_ID": "2023-198A", "EPOCH": "2025-12-27T06:49:37.520256", "MEAN_MOTION": 2.00602128, "ECCENTRICITY": 0.686626, "INCLINATION": 63.2254, "RA_OF_ASC_NODE": 173.3087, "ARG_OF_PERICENTER": 268.0456, "MEAN_ANOMALY": 18.8429, "EPHEMERIS_TYPE": 0, "CLASSIFICATION_TYPE": "U", "NORAD_CAT_ID": 58584, "ELEMENT_SET_NO": 999, "REV_AT_EPOCH": 1487, "BSTAR": 0, "MEAN_MOTION_DOT": 2.38e-06, "MEAN_MOTION_DDOT": 0}, "tle": {"line1": "1 58584U 23198A   25361.28446204  .00000238  00000+0  00000+0 0  9991", "line2": "2 58584  63.2254 173.3087 6866260 268.0456  18.8429  2.00602128 14871"}}, "geometry": {"type": "Point", "coordinates": [-143.25927503005798, 53.73743331647515]}}, {"type": "Feature", "properties": {"norad_id": 58645, "name": "TIANMU-1 11", "group": "weather", "lat": -79.53778154433891, "lon": 65.6775450159901, "alt_km": 494.35158782235703, "timestamp": "2025-12-27T21:25:02.142987+00:00", "meta": {"OBJECT_NAME": "TIANMU-1 11", "OBJECT_ID": "2023-205A", "EPOCH": "2025-12-27T12:19:43.292928", "MEAN_MOTION": 15.2478036, "ECCENTRICITY": 0.0007609, "INCLINATION": 97.3602, "RA_OF_ASC_NODE": 20.8777, "ARG_OF_PERICENTER": 246.9396, "MEAN_ANOMALY": 113.104, "EPHEMERIS_TYPE": 0, "CLASSIFICATION_TYPE": "U", "NORAD_CAT_ID": 58645, "ELEMENT_SET_NO": 999, "REV_AT_EPOCH": 11134, "BSTAR": 0.00026906, "MEAN_MOTION_DOT": 6.604e-05, "MEAN_MOTION_DDOT": 0}, "tle": {"line1": "1 58645U 23205A   25361.51369552  .00006604  00000+0  26906-3 0  9994", "line2": "2 58645  97.3602  20.8777 0007609 246.9396 113.1040 15.24780360111345"}}, "geometry": {"type": "Point", "coordinates": [65.6775450159901, -79.53778154433891]}}, {"type": "Feature", "properties": {"norad_id": 58646, "name": "TIANMU-1 12", "group": "weather", "lat": 55.91734989203366, "lon": -147.9378135443682, "alt_km": 487.2028492490299, "timestamp": "2025-12-27T21:25:02.142997+00:00", "meta": {"OBJECT_NAME": "TIANMU-1 12", "OBJECT_ID": "2023-205B", "EPOCH": "2025-12-27T13:00:07.753824", "MEAN_MOTION": 15.24668714, "ECCENTRICITY": 0.0006166, "INCLINATION": 97.359, "RA_OF_ASC_NODE": 20.7059, "ARG_OF_PERICENTER": 224.5189, "MEAN_ANOMALY": 135.5554, "EPHEMERIS_TYPE": 0, "CLASSIFICATION_TYPE": "U", "NORAD_CAT_ID": 58646, "ELEMENT_SET_NO": 999, "REV_AT_EPOCH": 11133, "BSTAR": 0.00030865, "MEAN_MOTION_DOT": 7.56e-05, "MEAN_MOTION_DDOT": 0}, "tle": {"line1": "1 58646U 23205B   25361.54175641  .00007560  00000+0  30865-3 0  9993", "line2": "2 58646  97.3590  20.7059 0006166 224.5189 135.5554 15.24668714111338"}}, "geometry": {"type": "Point", "coordinates": [-147.9378135443682, 55.91734989203366]}}, {"type": "Feature", "properties": {"norad_id": 58647, "name": "TIANMU-1 13", "group": "weather", "lat": -57.507373111358056, "lon": 32.97033266991922, "alt_km": 499.5528182269363, "timestamp": "2025-12-27T21:25:02.143010+00:00", "meta": {"OBJECT_NAME": "TIANMU-1 13", "OBJECT_ID": "2023-205C", "EPOCH": "2025-12-27T12:13:19.739136", "MEAN_MOTION": 15.24711477, "ECCENTRICITY": 0.0006872, "INCLINATION": 97.3618, "RA_OF_ASC_NODE": 20.8812, "ARG_OF_PERICENTER": 203.573, "MEAN_ANOMALY": 156.5194, "EPHEMERIS_TYPE": 0, "CLASSIFICATION_TYPE": "U", "NORAD_CAT_ID": 58647, "ELEMENT_SET_NO": 999, "REV_AT_EPOCH": 11132, "BSTAR": 0.00027583, "MEAN_MOTION_DOT": 6.757e-05, "MEAN_MOTION_DDOT": 0}, "tle": {"line1": "1 58647U 23205C   25361.50925624  .00006757  00000+0  27583-3 0  9994", "line2": "2 58647  97.3618  20.8812 0006872 203.5730 156.5194 15.24711477111328"}}, "geometry": {"type": "Point", "coordinates": [32.97033266991922, -57.507373111358056]}}, {"type": "Feature", "properties": {"norad_id": 58648, "name": "TIANMU-1 14", "group": "weather", "lat": 31.453478412191014, "lon": 16.06079350459401, "alt_km": 495.19771398498324, "timestamp": "2025-12-27T21:25:02.143047+00:00", "meta": {"OBJECT_NAME": "TIANMU-1 14", "OBJECT_ID": "2023-205D", "EPOCH": "2025-12-27T13:24:10.052352", "MEAN_MOTION": 15.24694737, "ECCENTRICITY": 0.0007562, "INCLINATION": 97.355, "RA_OF_ASC_NODE": 20.2646, "ARG_OF_PERICENTER": 209.4616, "MEAN_ANOMALY": 150.6197, "EPHEMERIS_TYPE": 0, "CLASSIFICATION_TYPE": "U", "NORAD_CAT_ID": 58648, "ELEMENT_SET_NO": 999, "REV_AT_EPOCH": 11133, "BSTAR": 0.00028832, "MEAN_MOTION_DOT": 7.064e-05, "MEAN_MOTION_DDOT": 0}, "tle": {"line1": "1 58648U 23205D   25361.55844968  .00007064  00000+0  28832-3 0  9991", "line2": "2 58648  97.3550  20.2646 0007562 209.4616 150.6197 15.24694737111336"}}, "geometry": {"type": "Point", "coordinates": [16.06079350459401, 31.453478412191014]}}, {"type": "Feature", "properties": {"norad_id": 58660, "name": "TIANMU-1 19", "group": "weather", "lat": 67.57404854079496, "lon": -48.642537092176624, "alt_km": 474.2023500031801, "timestamp": "2025-12-27T21:25:02.143061+00:00", "meta": {"OBJECT_NAME": "TIANMU-1 19", "OBJECT_ID": "2023-208A", "EPOCH": "2025-12-27T13:04:27.809184", "MEAN_MOTION": 15.28125464, "ECCENTRICITY": 0.0004974, "INCLINATION": 97.4383, "RA_OF_ASC_NODE": 112.5548, "ARG_OF_PERICENTER": 191.6541, "MEAN_ANOMALY": 168.4584, "EPHEMERIS_TYPE": 0, "CLASSIFICATION_TYPE": "U", "NORAD_CAT_ID": 58660, "ELEMENT_SET_NO": 999, "REV_AT_EPOCH": 11108, "BSTAR": 0.00040029, "MEAN_MOTION_DOT": 0.0001091, "MEAN_MOTION_DDOT": 0}, "tle": {"line1": "1 58660U 23208A   25361.54476631  .00010910  00000+0  40029-3 0  9991", "line2": "2 58660  97.4383 112.5548 0004974 191.6541 168.4584 15.28125464111083"}}, "geometry": {"type": "Point", "coordinates": [-48.642537092176624, 67.57404854079496]}}, {"type": "Feature", "properties": {"norad_id": 58661, "name": "TIANMU-1 20", "group": "weather", "lat": -69.08908675668523, "lon": -86.6132329234987, "alt_km": 481.8028953037756, "timestamp": "2025-12-27T21:25:02.143072+00:00", "meta": {"OBJECT_NAME": "TIANMU-1 20", "OBJECT_ID": "2023-208B", "EPOCH": "2025-12-27T12:28:27.001344", "MEAN_MOTION": 15.29316027, "ECCENTRICITY": 0.0006978, "INCLINATION": 97.4321, "RA_OF_ASC_NODE": 112.992, "ARG_OF_PERICENTER": 205.6133, "MEAN_ANOMALY": 154.4763, "EPHEMERIS_TYPE": 0, "CLASSIFICATION_TYPE": "U", "NORAD_CAT_ID": 58661, "ELEMENT_SET_NO": 999, "REV_AT_EPOCH": 11115, "BSTAR": 0.00039745, "MEAN_MOTION_DOT": 0.00011239, "MEAN_MOTION_DDOT": 0}, "tle": {"line1": "1 58661U 23208B   25361.51975696  .00011239  00000+0  39745-3 0  9992", "line2": "2 58661  97.4321 112.9920 0006978 205.6133 154.4763 15.29316027111153"}}, "geometry": {"type": "Point", "coordinates": [-86.6132329234987, -69.08908675668523]}}]}